{
  "norad_id": 57390,
  "name": "LEMUR-2-MANO",
  "history": [
    {
      "epoch": "2026-03-28T20:00:41.486400Z",
      "apogee_km": 371.93940046115586,
      "perigee_km": 363.80991673161316,
      "latitude_deg": -3.792652756101688e-05,
      "longitude_deg": -9.617533710991603,
      "height_km": 374.9479404217194,
      "semi_major_axis_km": 6746.011658596384,
      "eccentricity": 0.00060254,
      "inclination_deg": 99.4497,
      "raan_deg": 116.8039,
      "arg_perigee_deg": 191.3826,
      "mean_anomaly_deg": 168.7292,
      "mean_motion_rev_day": 15.66866989
    },
    {
      "epoch": "2026-03-29T00:36:33.950880Z",
      "apogee_km": 371.7513097633555,
      "perigee_km": 363.53764623574443,
      "latitude_deg": 2.4118265661654362e-05,
      "longitude_deg": -78.51797535420586,
      "height_km": 374.75407078631775,
      "semi_major_axis_km": 6745.78147799955,
      "eccentricity": 0.0006088,
      "inclination_deg": 99.4495,
      "raan_deg": 117.0609,
      "arg_perigee_deg": 191.7397,
      "mean_anomaly_deg": 168.3716,
      "mean_motion_rev_day": 15.66947187
    }
  ]
}